CSS (TIANHE)            
1 48274U 21035A   24164.49784421  .00018950  00000+0  21657-3 0  9998
2 48274  41.4680 111.7020 0003270 215.3210 144.7412 15.61715532178362
